NORAD_CAT_ID,OBJECT_NAME,OBJECT_TYPE,EPOCH,MEAN_MOTION,ECCENTRICITY,INCLINATION,RA_OF_ASC_NODE,ARG_OF_PERICENTER,MEAN_ANOMALY,BSTAR,MEAN_MOTION_DOT,MEAN_MOTION_DDOT,TLE_LINE0,TLE_LINE1,TLE_LINE2,SEMIMAJOR_AXIS,PERIOD,APOGEE,PERIGEE,DECAYED
50840.0,STARLINK-3295,PAYLOAD,2024-01-28 07:32:17,15.08840721,0.0001724,53.2181,41.958,99.3253,260.7934,7.6037e-05,9.22e-06,0.0,0 STARLINK-3295,1 50840U 22001AP  24028.31409172  .00000922  00000-0  76037-4 0  9995,2 50840  53.2181  41.9580 0001724  99.3253 260.7934 15.08840721113801,6917.878,95.438,540.936,538.551,0.0
50840.0,STARLINK-3295,PAYLOAD,2024-01-29 04:12:18,15.08839953,0.0001713,53.2188,38.0962,101.1545,258.964,5.7678e-05,6.3e-06,0.0,0 STARLINK-3295,1 50840U 22001AP  24029.17521424  .00000630  00000-0  57678-4 0  9991,2 50840  53.2188  38.0962 0001713 101.1545 258.9640 15.08839953115229,6917.881,95.438,540.931,538.56,0.0
50840.0,STARLINK-3295,PAYLOAD,2024-01-29 07:23:04,15.08842312,0.0001704,53.2188,37.5016,99.9434,260.1751,7.0996e-05,8.42e-06,0.0,0 STARLINK-3295,1 50840U 22001AP  24029.30769266  .00000842  00000-0  70996-4 0  9997,2 50840  53.2188  37.5016 0001704  99.9434 260.1751 15.08842312113953,6917.873,95.437,540.917,538.56,0.0
50840.0,STARLINK-3295,PAYLOAD,2024-01-30 05:38:28,15.08838235,0.0001708,53.2194,33.3374,101.3706,258.7478,2.4519e-05,1.02e-06,0.0,0 STARLINK-3295,1 50840U 22001AP  24030.23505757  .00000102  00000-0  24519-4 0  9993,2 50840  53.2194  33.3374 0001708 101.3706 258.7478 15.08838235115382,6917.886,95.438,540.932,538.569,0.0
50840.0,STARLINK-3295,PAYLOAD,2024-01-31 07:04:39,15.08838712,0.0001653,53.2188,28.5799,96.4394,263.6786,9.8988e-06,-1.31e-06,0.0,0 STARLINK-3295,1 50840U 22001AP  24031.29490024 -.00000131  00000-0  98988-5 0  9995,2 50840  53.2188  28.5799 0001653  96.4394 263.6786 15.08838712115543,6917.884,95.438,540.893,538.606,0.0
50840.0,STARLINK-3295,PAYLOAD,2024-02-01 06:55:26,15.0883818,0.0001499,53.2183,24.1198,87.4165,272.6999,5.9036e-05,6.52e-06,0.0,0 STARLINK-3295,1 50840U 22001AP  24032.28850153  .00000652  00000-0  59036-4 0  9995,2 50840  53.2183  24.1198 0001499  87.4165 272.6999 15.08838180114406,6917.886,95.438,540.788,538.714,0.0
50840.0,STARLINK-3295,PAYLOAD,2024-02-02 03:35:27,15.08837896,0.0001552,53.2183,20.2541,83.8384,276.2785,4.5769e-05,4.4e-06,0.0,0 STARLINK-3295,1 50840U 22001AP  24033.14962432  .00000440  00000-0  45769-4 0  9998,2 50840  53.2183  20.2541 0001552  83.8384 276.2785 15.08837896115821,6917.887,95.438,540.825,538.678,0.0
50840.0,STARLINK-3295,PAYLOAD,2024-02-02 08:21:36,15.08843456,0.0001689,53.2188,19.3561,76.4033,283.7147,9.0564e-05,1.154e-05,0.0,0 STARLINK-3295,1 50840U 22001AP  24033.34833960  .00001154  00000-0  90564-4 0  9999,2 50840  53.2188  19.3561 0001689  76.4033 283.7147 15.08843456114561,6917.87,95.437,540.903,538.566,0.0
50840.0,STARLINK-3295,PAYLOAD,2024-02-03 05:01:37,15.08842926,0.0002353,53.2208,15.4857,58.9435,301.1788,7.5465e-05,9.13e-06,0.0,0 STARLINK-3295,1 50840U 22001AP  24034.20946232  .00000913  00000-0  75465-4 0  9997,2 50840  53.2208  15.4857 0002353  58.9435 301.1788 15.08842926114690,6917.871,95.437,541.364,538.109,0.0
50840.0,STARLINK-3295,PAYLOAD,2024-02-03 22:30:52,15.08842542,0.0001755,53.2187,12.22,76.6109,283.5079,5.2594e-07,-2.8e-06,0.0,0 STARLINK-3295,1 50840U 22001AP  24034.93810287 -.00000280  00000-0  52594-6 0  9995,2 50840  53.2187  12.2200 0001755  76.6109 283.5079 15.08842542114806,6917.873,95.437,540.952,538.524,0.0
50840.0,STARLINK-3295,PAYLOAD,2024-02-04 08:03:10,15.08848638,0.0001398,53.2175,10.4373,106.8712,253.2433,2.8284e-05,1.62e-06,0.0,0 STARLINK-3295,1 50840U 22001AP  24035.33553499  .00000162  00000-0  28284-4 0  9994,2 50840  53.2175  10.4373 0001398 106.8712 253.2433 15.08848638116153,6917.854,95.437,540.686,538.752,0.0
50840.0,STARLINK-3295,PAYLOAD,2024-02-04 22:21:39,15.08855244,0.0001523,53.2177,7.7603,99.0536,261.0629,-0.00020852,-3.606e-05,0.0,0 STARLINK-3295,1 50840U 22001AP  24035.93170186 -.00003606  00000-0 -20852-3 0  9998,2 50840  53.2177   7.7603 0001523  99.0536 261.0629 15.08855244114958,6917.834,95.437,540.752,538.645,0.0
50840.0,STARLINK-3295,PAYLOAD,2024-02-05 04:43:11,15.08847267,0.0001386,53.2178,6.5685,93.4443,266.6708,1.4253e-05,-6.1e-07,0.0,0 STARLINK-3295,1 50840U 22001AP  24036.19665553 -.00000061  00000-0  14253-4 0  9994,2 50840  53.2178   6.5685 0001386  93.4443 266.6708 15.08847267116281,6917.858,95.437,540.682,538.764,0.0
50840.0,STARLINK-3295,PAYLOAD,2024-02-06 02:58:35,15.08839926,0.0001441,53.2195,2.4101,101.6349,258.4805,4.5565e-07,-2.81e-06,0.0,0 STARLINK-3295,1 50840U 22001AP  24037.12402169 -.00000281  00000-0  45565-6 0  9996,2 50840  53.2195   2.4101 0001441 101.6349 258.4805 15.08839926116423,6917.881,95.438,540.742,538.749,0.0
50840.0,STARLINK-3295,PAYLOAD,2024-02-06 22:03:13,15.08839037,0.0001338,53.2179,358.8412,98.7052,261.4091,4.2507e-05,3.89e-06,0.0,0 STARLINK-3295,1 50840U 22001AP  24037.91890212  .00000389  00000-0  42507-4 0  9992,2 50840  53.2179 358.8412 0001338  98.7052 261.4091 15.08839037115254,6917.883,95.438,540.674,538.823,0.0
50840.0,STARLINK-3295,PAYLOAD,2024-02-07 04:24:45,15.0884794,0.0001774,53.2187,357.6521,103.7832,256.3357,-1.5086e-05,-5.28e-06,0.0,0 STARLINK-3295,1 50840U 22001AP  24038.18385856 -.00000528  00000-0 -15086-4 0  9994,2 50840  53.2187 357.6521 0001774 103.7832 256.3357 15.08847940116585,6917.856,95.437,540.948,538.494,0.0
50840.0,STARLINK-3295,PAYLOAD,2024-02-07 13:57:04,15.08838716,0.0001381,53.219,355.8685,93.4623,266.6527,5.8258e-05,6.39e-06,0.0,0 STARLINK-3295,1 50840U 22001AP  24038.58130245  .00000639  00000-0  58258-4 0  9997,2 50840  53.2190 355.8685 0001381  93.4623 266.6527 15.08838716115355,6917.884,95.438,540.705,538.794,0.0
50840.0,STARLINK-3295,PAYLOAD,2024-02-08 05:50:56,15.08839569,0.0001424,53.2188,352.8939,81.6451,278.4703,5.819e-05,6.38e-06,0.0,0 STARLINK-3295,1 50840U 22001AP  24039.24370663  .00000638  00000-0  58190-4 0  9995,2 50840  53.2188 352.8939 0001424  81.6451 278.4703 15.08839569115452,6917.882,95.438,540.732,538.762,0.0
50840.0,STARLINK-3295,PAYLOAD,2024-02-09 04:06:19,15.08854716,0.0001433,53.219,348.7317,86.0371,274.0785,0.00016875,2.4e-05,0.0,0 STARLINK-3295,1 50840U 22001AP  24040.17105513  .00002400  00000-0  16875-3 0  9991,2 50840  53.2190 348.7317 0001433  86.0371 274.0785 15.08854716116880,6917.835,95.437,540.692,538.709,0.0
50840.0,STARLINK-3295,PAYLOAD,2024-02-09 05:41:42,15.08855984,0.0001387,53.2189,348.4333,88.4698,271.6453,0.00017538,2.506e-05,0.0,0 STARLINK-3295,1 50840U 22001AP  24040.23729341  .00002506  00000-0  17538-3 0  9993,2 50840  53.2189 348.4333 0001387  88.4698 271.6453 15.08855984115601,6917.832,95.437,540.656,538.737,0.0
50840.0,STARLINK-3295,PAYLOAD,2024-02-09 20:00:11,15.08832003,0.0001651,53.2186,345.758,87.9377,272.1805,0.00011092,1.477e-05,0.0,0 STARLINK-3295,1 50840U 22001AP  24040.83347174  .00001477  00000-0  11092-3 0  9994,2 50840  53.2186 345.7580 0001651  87.9377 272.1805 15.08832003116980,6917.905,95.438,540.912,538.628,0.0
50840.0,STARLINK-3295,PAYLOAD,2024-02-10 05:32:30,15.08840519,0.0001454,53.2195,343.9721,95.7911,264.3247,4.5284e-05,4.33e-06,0.0,0 STARLINK-3295,1 50840U 22001AP  24041.23091001  .00000433  00000-0  45284-4 0  9996,2 50840  53.2195 343.9721 0001454  95.7911 264.3247 15.08840519115757,6917.879,95.438,540.75,538.738,0.0
50840.0,STARLINK-3295,PAYLOAD,2024-02-10 19:50:58,15.08847021,0.0001317,53.2185,341.2959,119.0598,241.0527,-7.3783e-05,-1.462e-05,0.0,0 STARLINK-3295,1 50840U 22001AP  24041.82707075 -.00001462  00000-0 -73783-4 0  9996,2 50840  53.2185 341.2959 0001317 119.0598 241.0527 15.08847021115847,6917.859,95.437,540.635,538.813,0.0
50840.0,STARLINK-3295,PAYLOAD,2024-02-11 02:12:31,15.08851743,0.0001546,53.2178,340.1115,82.7439,277.3729,-1.9544e-05,-5.99e-06,0.0,0 STARLINK-3295,1 50840U 22001AP  24042.09202576 -.00000599  00000-0 -19544-4 0  9997,2 50840  53.2178 340.1115 0001546  82.7439 277.3729 15.08851743117175,6917.844,95.437,540.779,538.64,0.0
50840.0,STARLINK-3295,PAYLOAD,2024-02-11 05:23:16,15.08862104,0.0001343,53.2193,339.5106,113.8109,246.3024,5.4061e-05,5.73e-06,0.0,0 STARLINK-3295,1 50840U 22001AP  24042.22449385  .00000573  00000-0  54061-4 0  9996,2 50840  53.2193 339.5106 0001343 113.8109 246.3024 15.08862104117198,6917.813,95.436,540.607,538.749,0.0
50840.0,STARLINK-3295,PAYLOAD,2024-02-12 02:03:18,15.08842633,0.0001445,53.2188,335.6459,88.1121,272.0037,6.414e-05,7.33e-06,0.0,0 STARLINK-3295,1 50840U 22001AP  24043.08562675  .00000733  00000-0  64140-4 0  9996,2 50840  53.2188 335.6459 0001445  88.1121 272.0037 15.08842633117321,6917.872,95.437,540.737,538.738,0.0
50840.0,STARLINK-3295,PAYLOAD,2024-02-12 05:14:04,15.08848059,0.0001329,53.2185,335.0488,92.7645,267.3499,8.9736e-05,1.141e-05,0.0,0 STARLINK-3295,1 50840U 22001AP  24043.21810223  .00001141  00000-0  89736-4 0  9998,2 50840  53.2185 335.0488 0001329  92.7645 267.3499 15.08848059116053,6917.856,95.437,540.64,538.801,0.0
50840.0,STARLINK-3295,PAYLOAD,2024-02-12 22:43:19,15.08840242,0.0001711,53.2173,331.7758,133.7279,226.3855,-0.00011211,-2.072e-05,0.0,0 STARLINK-3295,1 50840U 22001AP  24043.94675141 -.00002072  00000-0 -11211-3 0  9994,2 50840  53.2173 331.7758 0001711 133.7279 226.3855 15.08840242116166,6917.88,95.438,540.928,538.561,0.0
50840.0,STARLINK-3295,PAYLOAD,2024-02-13 05:04:51,15.08842535,0.0001561,53.2187,330.5889,119.7885,240.3262,-7.6133e-05,-1.5e-05,0.0,0 STARLINK-3295,1 50840U 22001AP  24044.21171051 -.00001500  00000-0 -76133-4 0  9996,2 50840  53.2187 330.5889 0001561 119.7885 240.3262 15.08842535117495,6917.873,95.437,540.818,538.658,0.0
50840.0,STARLINK-3295,PAYLOAD,2024-02-13 22:34:06,15.0884164,0.0001529,53.2184,327.3176,114.5326,245.5826,-4.3991e-05,-9.88e-06,0.0,0 STARLINK-3295,1 50840U 22001AP  24044.94035440 -.00000988  00000-0 -43991-4 0  9992,2 50840  53.2184 327.3176 0001529 114.5326 245.5826 15.08841640116311,6917.875,95.437,540.798,538.683,0.0
